CUBEBUG-2 (LO-74)
1 39440U 13066AA  26195.86030594  .00001977  00000-0  18584-3 0  9997
2 39440  97.8912 144.9614 0055738 296.4824  63.0685 14.93965331681120
FUNCUBE-1 (AO-73)
1 39444U 13066AE  26195.89500428  .00003450  00000-0  21408-3 0  9999
2 39444  97.8288 167.9280 0038001 108.6151 251.9210 15.09815503683841
UWE-3
1 39446U 13066AG  26195.81898914  .00001907  00000-0  16664-3 0  9996
2 39446  97.8706 152.0848 0047493 225.7627 133.9691 14.97197060681710
UNISAT-6
1 40012U 14033C   26195.89983734  .00001123  00000-0  12523-3 0  9995
2 40012  97.7908 348.1307 0044208 338.7628  21.1753 14.88365865650284
DUCHIFAT-1
1 40021U 14033M   26195.66063349  .00097037  00000-0  77166-3 0  9994
2 40021  98.0414 258.8180 0002763 248.3674 111.7293 15.70920437660058
LILACSAT-2
1 40908U 15049K   26195.93380429  .00011476  00000-0  18973-3 0  9991
2 40908  97.4624 233.8424 0008402 142.1229 218.0616 15.52353298600054
CAS-2T & KS-1Q
1 41847U 16066G   26195.80491248  .00000542  00000-0  84315-4 0  9998
2 41847  98.3814 271.2251 0342254  45.9444 316.9396 14.44769868508781
FOX-1B (AO-91)
1 43017U 17073E   26195.58998105  .00004198  00000-0  18450-3 0  9994
2 43017  97.4666  62.2466 0148235 233.5986 125.1498 15.13055354469539
FUNCUBE-3 (EO-79)/QB50P1
1 40025U 14033R   26195.56334166  .00004361  00000-0  21396-3 0  9997
2 40025  98.0961 208.6368 0010316 126.4314 233.7871 15.18660627657181
FOX-1A (AO-85)
1 40967U 15058D   26195.71794219  .00001658  00000-0  15662-3 0  9991
2 40967  64.7725 193.4176 0132322  45.9898 315.2028 14.91086579117679
DIWATA-2B (PO-101)
1 43678U 18084H   26195.97757161  .00001139  00000-0  95315-4 0  9996
2 43678  98.1214  33.4029 0012856  85.0535 275.2154 15.00563062420385
ESHAIL-2
1 43700U 18090A   26195.94584113  .00000135  00000-0  00000-0 0  9999
2 43700   0.0182  41.5372 0002196 117.5524 139.9892  1.00270755 27953
ITASAT-1
1 43786U 18099AE  26195.68501883  .00003815  00000-0  18333-3 0  9995
2 43786  97.4014 246.6512 0010830 252.4754 107.5298 15.19378278417085
FOX-1CLIFF (AO-95)
1 43770U 18099N   26195.66582854  .00006291  00000-0  23813-3 0  9993
2 43770  97.4374 255.8190 0007215 242.1625 117.8883 15.27266884417416
JY1SAT (JO-97)
1 43803U 18099AX  26195.62172083  .00009262  00000-0  27927-3 0  9996
2 43803  97.4121 258.5644 0006852 159.8317 200.3198 15.34505872417839
UWE-4
1 43880U 18111E   26195.77048968  .00021018  00000-0  40605-3 0  9997
2 43880  97.5848 125.4664 0006092 196.0954 164.0103 15.47799907415042
CAS-6 (TO-108)
1 44881U 19093C   26195.91174127  .00000483  00000-0  60521-4 0  9995
2 44881  97.7529 267.4666 0013648   2.6760 357.4526 14.86561635355534
DOSAAF-85 (RS-44)
1 44909U 19096E   26195.83749079 -.00000001  00000-0 -55241-4 0  9995
2 44909  82.5241 321.3319 0218536  79.8236 282.7434 12.79748927305882
SALSAT (TUBSAT 22)
1 46495U 20068K   26195.54877328  .00004163  00000-0  14541-3 0  9993
2 46495  97.8856 200.2874 0009148 195.2534 164.8431 15.30166467319545
CAMSAT XW-3 (CAS-9)
1 50466U 21131B   26195.96087362  .00000135  00000-0  55327-4 0  9998
2 50466  98.4993 288.2007 0004640  30.9838 329.1624 14.41381038239113
ROBUSTA 1F (MTCUBE-2)
1 53109U 22080E   26195.26503440 -.00000003  00000-0  00000-0 0  9991
2 53109  70.1411 288.8296 0009054 283.5288  76.4363  6.42583348 93803
UMKA-1 (RS40S)
1 57172U 23091G   26195.92275363  .00003354  00000-0  15359-3 0  9998
2 57172  97.5038 254.5163 0013103  30.4413 329.7580 15.21119467168225
CUBESX-HSE-3 (RS42S)
1 57178U 23091N   26195.94114340  .00007521  00000-0  24661-3 0  9999
2 57178  97.5082 261.8899 0009688   3.0268 357.1030 15.31880282168679
MONITOR-3 (RS58S)
1 57180U 23091Q   26195.96263729  .00005747  00000-0  21048-3 0  9994
2 57180  97.5072 259.6203 0011012  10.5164 349.6304 15.28370025168537
MONITOR-4 (RS57S)
1 57182U 23091S   26195.94014703  .00005854  00000-0  21380-3 0  9998
2 57182  97.5066 259.5703 0011011  11.0919 349.0561 15.28456199168535
MONITOR-2 (RS39S)
1 57184U 23091U   26195.91349772  .00002740  00000-0  13350-3 0  9993
2 57184  97.5059 254.0190 0011447  25.0472 335.1316 15.19152851168162
SVYATOBOR-1 (RS60S)
1 57187U 23091X   26195.91232920  .00004982  00000-0  19033-3 0  9996
2 57187  97.5078 259.8888 0008770   5.6215 354.5120 15.27060189168548
VIZARD-METEO (RS38S)
1 57189U 23091Z   26195.95666009  .00009833  00000-0  27496-3 0  9993
2 57189  97.5083 266.0131 0005699 340.7696  19.3332 15.36869619168951
UTMN-2 (RS27S)
1 57203U 23091AP  26195.94377457  .00007388  00000-0  23637-3 0  9991
2 57203  97.5078 263.5600 0006763 351.2463   8.8660 15.32697964168794
POLYTECH UNIVERSE-3 (RS46S)
1 57191U 23091AB  26195.93691945  .00002667  00000-0  12903-3 0  9996
2 57191  97.5035 253.5464 0016105  38.5215 321.7166 15.19365263168169
