OBJECT_NAME,OBJECT_ID,EPOCH,MEAN_MOTION,ECCENTRICITY,INCLINATION,RA_OF_ASC_NODE,ARG_OF_PERICENTER,MEAN_ANOMALY,EPHEMERIS_TYPE,CLASSIFICATION_TYPE,NORAD_CAT_ID,ELEMENT_SET_NO,REV_AT_EPOCH,BSTAR,MEAN_MOTION_DOT,MEAN_MOTION_DDOT
CUBEBUG-2 (LO-74),2013-066AA,2026-07-14T20:38:50.433216,14.93965331,.00557382,97.8912,144.9614,296.4824,63.0685,0,U,39440,999,68112,.18583929E-3,.1977E-4,0
FUNCUBE-1 (AO-73),2013-066AE,2026-07-14T21:28:48.369792,15.09815503,.00380007,97.8288,167.9280,108.6151,251.9210,0,U,39444,999,68384,.21407923E-3,.345E-4,0
UWE-3,2013-066AG,2026-07-14T19:39:20.661696,14.97197060,.00474932,97.8706,152.0848,225.7627,133.9691,0,U,39446,999,68171,.16664043E-3,.1907E-4,0
UNISAT-6,2014-033C,2026-07-14T21:35:45.946176,14.88365865,.00442081,97.7908,348.1307,338.7628,21.1753,0,U,40012,999,65028,.12523011E-3,.1123E-4,0
DUCHIFAT-1,2014-033M,2026-07-14T15:51:18.733536,15.70920437,.00027634,98.0414,258.8180,248.3674,111.7293,0,U,40021,999,66005,.77166474E-3,.97037E-3,0
QB50P1,2014-033R,2026-07-14T13:31:12.719424,15.18660627,.0010316,98.0961,208.6368,126.4314,233.7871,0,U,40025,999,65718,.21396E-3,.4361E-4,0
LILACSAT-2,2015-049K,2026-07-14T22:24:40.690656,15.52353298,.00084022,97.4624,233.8424,142.1229,218.0616,0,U,40908,999,60005,.18973255E-3,.11476E-3,0
FOX-1A (AO-85),2015-058D,2026-07-14T17:13:50.205216,14.91086579,.01323215,64.7725,193.4176,45.9898,315.2028,0,U,40967,999,11767,.15661767E-3,.1658E-4,0
CAS-2T & KS-1Q,2016-066G,2026-07-14T19:19:04.438272,14.44769868,.03422541,98.3814,271.2251,45.9444,316.9396,0,U,41847,999,50878,.8431549E-4,.542E-5,0
RADFXSAT (FOX-1B),2017-073E,2026-07-14T14:09:34.362720,15.13055354,.0148235,97.4666,62.2466,233.5986,125.1498,0,U,43017,999,46953,.1845E-3,.4198E-4,0
DIWATA-2B,2018-084H,2026-07-14T23:27:42.187104,15.00563062,.00128555,98.1214,33.4029,85.0535,275.2154,0,U,43678,999,42038,.95314833E-4,.1139E-4,0
ES'HAIL 2,2018-090A,2026-07-14T22:42:00.673632,1.00270755,.00021957,0.0182,41.5372,117.5524,139.9892,0,U,43700,999,2795,0,.135E-5,0
FOX-1CLIFF (AO-95),2018-099N,2026-07-14T15:58:47.585856,15.27266884,.0007215,97.4374,255.8190,242.1625,117.8883,0,U,43770,999,41741,.23812579E-3,.6291E-4,0
ITASAT,2018-099AE,2026-07-14T16:26:25.626912,15.19378278,.001083,97.4014,246.6512,252.4754,107.5298,0,U,43786,999,41708,.18332997E-3,.3815E-4,0
JY1SAT (JO-97),2018-099AX,2026-07-14T14:55:16.679712,15.34505872,.00068516,97.4121,258.5644,159.8317,200.3198,0,U,43803,999,41783,.27927018E-3,.9262E-4,0
UWE-4,2018-111E,2026-07-14T18:29:30.308352,15.47799907,.00060919,97.5848,125.4664,196.0954,164.0103,0,U,43880,999,41504,.4060488E-3,.21018E-3,0
TIANYAN 01,2019-093C,2026-07-14T21:52:54.445728,14.86561635,.00136478,97.7529,267.4666,2.6760,357.4526,0,U,44881,999,35553,.60520748E-4,.483E-5,0
RS-44 & BREEZE-KM R/B,2019-096E,2026-07-14T20:05:59.204256,12.79748927,.02185355,82.5241,321.3319,79.8236,282.7434,0,U,44909,999,30588,-.5524116E-4,-.1E-7,0
SALSAT,2020-068K,2026-07-14T13:10:14.011392,15.30166467,.0009148,97.8856,200.2874,195.2534,164.8431,0,U,46495,999,31954,.14541E-3,.4163E-4,0
XW-3 (CAS-9),2021-131B,2026-07-14T23:03:39.480768,14.41381038,.00046402,98.4993,288.2007,30.9838,329.1624,0,U,50466,999,23911,.55326702E-4,.135E-5,0
GREENCUBE (IO-117),2022-080E,2026-07-14T06:21:38.972160,6.42583348,.00090541,70.1411,288.8296,283.5288,76.4363,0,U,53109,999,9380,0,-.3E-7,0
UMKA 1 (RS40S),2023-091G,2026-07-14T22:08:45.913632,15.21119467,.00131028,97.5038,254.5163,30.4413,329.7580,0,U,57172,999,16822,.1535922E-3,.3354E-4,0
CUBESX-HSE 3 (RS42S),2023-091N,2026-07-14T22:35:14.789760,15.31880282,.00096879,97.5082,261.8899,3.0268,357.1030,0,U,57178,999,16867,.2466077E-3,.7521E-4,0
MONITOR-3 (RS58S),2023-091Q,2026-07-14T23:06:11.861856,15.28370025,.00110122,97.5072,259.6203,10.5164,349.6304,0,U,57180,999,16853,.21048454E-3,.5747E-4,0
MONITOR-4 (RS57S),2023-091S,2026-07-14T22:33:48.703392,15.28456199,.00110111,97.5066,259.5703,11.0919,349.0561,0,U,57182,999,16853,.21379828E-3,.5854E-4,0
MONITOR-2 (RS39S),2023-091U,2026-07-14T21:55:26.203008,15.19152851,.00114465,97.5059,254.0190,25.0472,335.1316,0,U,57184,999,16816,.13350281E-3,.274E-4,0
SVYATOBOR 1 (RS60S),2023-091X,2026-07-14T21:53:45.242880,15.27060189,.00087704,97.5078,259.8888,5.6215,354.5120,0,U,57187,999,16854,.19032872E-3,.4982E-4,0
VIZARD-METEO (RS38S),2023-091Z,2026-07-14T22:57:35.431776,15.36869619,.00056985,97.5083,266.0131,340.7696,19.3332,0,U,57189,999,16895,.27496356E-3,.9833E-4,0
POLYTECH-UNIVERSE 3 (RS46S),2023-091AB,2026-07-14T22:29:09.840480,15.19365263,.00161048,97.5035,253.5464,38.5215,321.7166,0,U,57191,999,16816,.12903246E-3,.2667E-4,0
UTMN 2 (RS27S),2023-091AP,2026-07-14T22:39:02.122848,15.32697964,.0006763,97.5078,263.5600,351.2463,8.8660,0,U,57203,999,16879,.23636645E-3,.7388E-4,0
